EUTELSAT HOTBIRD 13C    
1 33459U 08065A   26198.47179396 -.00000294  00000+0  00000+0 0  9999
2 33459   3.0264  78.8308 0003460  38.8266 297.1567  1.00270073 47649
EXPRESS-AM44            
1 33595U 09007A   26198.40832491 -.00000101  00000+0  00000+0 0  9999
2 33595   3.5393  78.0228 0003598  32.1125 321.0570  1.00271123 52581
NSS-9                   
1 33749U 09008A   26198.56294789  .00000062  00000+0  00000+0 0  9995
2 33749   1.3385  82.3574 0001954  22.9811 215.7665  1.00272999 63829
TELSTAR 11N             
1 34111U 09009A   26198.40303822 -.00000260  00000+0  00000+0 0  9993
2 34111   0.0212 296.8450 0002274 170.2493 295.6573  1.00272560 46541
WGS F2 (USA 204)        
1 34713U 09017A   26198.63573700  .00000058  00000+0  00000+0 0  9993
2 34713   0.0152  55.8280 0000371 144.8534  21.1171  1.00273515 45923
SES-7 (PROTOSTAR 2)     
1 34941U 09027A   26198.64582272 -.00000354  00000+0  00000+0 0  9992
2 34941   0.0145  54.1439 0000164 227.5864 354.4656  1.00272934 62935
MEASAT-3A               
1 35362U 09032A   26198.58478066 -.00000120  00000+0  00000+0 0  9995
2 35362   0.0282 335.8689 0002743 131.0523 198.9867  1.00272053  8338
EWS-G3 (GOES 14)        
1 35491U 09033A   26198.64878718 -.00000369  00000+0  00000+0 0  9999
2 35491   1.7665  82.6632 0002014  39.9059 169.9914  1.00097014  6892
FM-5                    
1 35493U 09034A   26198.53602126 -.00000209  00000+0  00000+0 0  9991
2 35493   0.0504 254.5778 0000895 104.1827  43.3849  1.00268994 46941
TERRESTAR-1             
1 35496U 09035A   26198.60237407 -.00000068  00000+0  00000+0 0  9992
2 35496   5.1944  48.7674 0002504  61.3853 291.1279  1.00272954 62431
ASIASAT 5               
1 35696U 09042A   26198.57296749  .00000000  00000+0  00000+0 0  9997
2 35696   0.0330  79.5962 0001442  28.5188 134.1163  1.00265888 62014
JCSAT-12 (JCSAT-RA)     
1 35755U 09044A   26198.57923397 -.00000337  00000+0  00000+0 0  9995
2 35755   0.0500 262.4629 0000900 287.8616  85.6448  1.00271216 61912
OPTUS D3                
1 35756U 09044B   26198.58391398 -.00000155  00000+0  00000+0 0  9995
2 35756   0.8945 268.1875 0003236 211.2815 182.2669  1.00270614 61872
NIMIQ 5                 
1 35873U 09050A   26198.39610484 -.00000266  00000+0  00000+0 0  9994
2 35873   0.0445 249.5097 0002638 221.6919 253.8963  1.00270278 61646
AMAZONAS 2              
1 35942U 09054A   26198.39619152 -.00000270  00000+0  00000+0 0  9991
2 35942   1.8920  82.6605 0003257  29.5931 253.5775  1.00273469 61483
COMSATBW-1              
1 35943U 09054B   26198.66391216  .00000016  00000+0  00000+0 0  9997
2 35943   0.0645 164.9027 0002745 311.8331 120.7536  1.00270712 61616
NSS-12                  
1 36032U 09058A   26198.63565034  .00000062  00000+0  00000+0 0  9990
2 36032   0.0860 269.3666 0004900 170.5737 141.3247  1.00271674 61222
THOR 6                  
1 36033U 09058B   26198.62421418 -.00000019  00000+0  00000+0 0  9990
2 36033   0.0183  99.8883 0001695  18.3921  41.0189  1.00271726 61319
INTELSAT 14 (IS-14)     
1 36097U 09064A   26198.58062753  .00000000  00000+0  00000+0 0  9994
2 36097   0.0172  42.8362 0002425  74.7534 341.8399  1.00270040 60912
EUTELSAT 36B            
1 36101U 09065A   26198.63435034  .00000103  00000+0  00000+0 0  9997
2 36101   0.5657  81.3291 0005591  32.2919 100.6870  1.00269121 61018
INTELSAT 15 (IS-15)     
1 36106U 09067A   26198.64119703  .00000000  00000+0  00000+0 0  9993
2 36106   0.0203  46.9456 0002261  68.7098 135.7866  1.00270400 41539
WGS F3 (USA 211)        
1 36108U 09068A   26198.59864740  .00000055  00000+0  00000+0 0  9998
2 36108   0.2966  85.6659 0000593  92.0364 203.2232  1.00271133 46892
DIRECTV 12              
1 36131U 09075A   26198.60402075 -.00000113  00000+0  00000+0 0  9999
2 36131   0.0447 222.1598 0000254 342.1549 205.8215  1.00272808 46853
BEIDOU-2 G1             
1 36287U 10001A   26198.58088064 -.00000291  00000+0  00000+0 0  9994
2 36287   4.3633  60.3036 0001876 287.4685 297.1997  1.00271145 60479
SDO                     
1 36395U 10005A   26198.24011013 -.00000096  00000+0  00000+0 0  9994
2 36395  34.7122  85.8846 0001789  45.4972 147.9067  1.00277241 60365
INTELSAT 16 (IS-16)     
1 36397U 10006A   26198.55981197 -.00000254  00000+0  00000+0 0  9996
2 36397   0.0162  59.1351 0002326  76.6378 284.9205  1.00271953 59959
EWS-G2 (GOES 15)        
1 36411U 10008A   26198.66391242  .00000013  00000+0  00000+0 0  9995
2 36411   1.3597  82.4311 0005330  54.3620 100.9749  1.00268908 59943
ECHOSTAR 14             
1 36499U 10010A   26198.60081407 -.00000009  00000+0  00000+0 0  9993
2 36499   0.0423 239.0658 0001951 220.3998 293.3225  1.00272006 46851
SES-1                   
1 36516U 10016A   26198.60436742 -.00000124  00000+0  00000+0 0  9993
2 36516   0.0580 270.6177 0002469 200.9475 300.4190  1.00271849 59333
ASTRA 3B                
1 36581U 10021A   26198.62898087  .00000127  00000+0  00000+0 0  9999
2 36581   1.5453  83.1824 0004345  23.6297  78.5537  1.00271265 59175
COMSATBW-2              
1 36582U 10021B   26198.62698752  .00000079  00000+0  00000+0 0  9993
2 36582   0.0439 176.7281 0002189 307.4946  50.1650  1.00267999 59269
BEIDOU-2 G3             
1 36590U 10024A   26198.66267111 -.00000144  00000+0  00000+0 0  9994
2 36590   4.5862  61.3777 0006933 359.4788 192.7110  1.00268178 59071
